{"type": "FeatureCollection", "features": [ {"type": "Feature", "properties": {"norad_id": 44804, "name": "CARTOSAT-3", "group": "resource", "lat": -74.51801798991734, "lon": 88.39755166671857, "alt_km": 519.3003507571475, "timestamp": "2025-12-26T18:39:31.930078+00:00", "meta": {"OBJECT_NAME": "CARTOSAT-3", "OBJECT_ID": "2019-081A", "EPOCH": "2025-12-26T14:15:08.620992", "MEAN_MOTION": 15.19272552, "ECCENTRICITY": 0.00135763, "INCLINATION": 97.4558, "RA_OF_ASC_NODE": 60.0001, "ARG_OF_PERICENTER": 39.2325, "MEAN_ANOMALY": 320.9891, "EPHEMERIS_TYPE": 0, "CLASSIFICATION_TYPE": "U", "NORAD_CAT_ID": 44804, "ELEMENT_SET_NO": 999, "REV_AT_EPOCH": 33726, "BSTAR": 0.00033977436, "MEAN_MOTION_DOT": 7.116e-05, "MEAN_MOTION_DDOT": 0}, "tle": {"line1": "1 44804U 19081A   25360.59384978  .00007116  00000+0  33977-3 0  9994", "line2": "2 44804  97.4558  60.0001 0013576  39.2325 320.9891 15.19272552337265"}}, "geometry": {"type": "Point", "coordinates": [88.39755166671857, -74.51801798991734]}}, {"type": "Feature", "properties": {"norad_id": 44819, "name": "GAOFEN-12 01", "group": "resource", "lat": -61.85993808139028, "lon": 171.81542904558808, "alt_km": 633.8098297467923, "timestamp": "2025-12-26T18:39:31.930089+00:00", "meta": {"OBJECT_NAME": "GAOFEN-12 01", "OBJECT_ID": "2019-082A", "EPOCH": "2025-12-26T14:19:18.587424", "MEAN_MOTION": 14.80673212, "ECCENTRICITY": 0.00023242, "INCLINATION": 97.8125, "RA_OF_ASC_NODE": 6.514, "ARG_OF_PERICENTER": 174.04, "MEAN_ANOMALY": 186.0841, "EPHEMERIS_TYPE": 0, "CLASSIFICATION_TYPE": "U", "NORAD_CAT_ID": 44819, "ELEMENT_SET_NO": 999, "REV_AT_EPOCH": 32855, "BSTAR": 7.6527149e-05, "MEAN_MOTION_DOT": 5.37e-06, "MEAN_MOTION_DDOT": 0}, "tle": {"line1": "1 44819U 19082A   25360.59674291  .00000537  00000+0  76527-4 0  9990", "line2": "2 44819  97.8125   6.5140 0002324 174.0400 186.0841 14.80673212328558"}}, "geometry": {"type": "Point", "coordinates": [171.81542904558808, -61.85993808139028]}}, {"type": "Feature", "properties": {"norad_id": 44873, "name": "CSG-1", "group": "resource", "lat": 67.59155538563772, "lon": 162.2625699492172, "alt_km": 614.9505171108294, "timestamp": "2025-12-26T18:39:31.930099+00:00", "meta": {"OBJECT_NAME": "CSG-1", "OBJECT_ID": "2019-092A", "EPOCH": "2025-12-26T15:06:30.415680", "MEAN_MOTION": 14.82163091, "ECCENTRICITY": 0.00014474, "INCLINATION": 97.8805, "RA_OF_ASC_NODE": 181.7445, "ARG_OF_PERICENTER": 84.7086, "MEAN_ANOMALY": 275.4292, "EPHEMERIS_TYPE": 0, "CLASSIFICATION_TYPE": "U", "NORAD_CAT_ID": 44873, "ELEMENT_SET_NO": 999, "REV_AT_EPOCH": 32591, "BSTAR": 9.244047e-05, "MEAN_MOTION_DOT": 6.84e-06, "MEAN_MOTION_DDOT": 0}, "tle": {"line1": "1 44873U 19092A   25360.62951870  .00000684  00000+0  92440-4 0  9991", "line2": "2 44873  97.8805 181.7445 0001447  84.7086 275.4292 14.82163091325910"}}, "geometry": {"type": "Point", "coordinates": [162.2625699492172, 67.59155538563772]}}, {"type": "Feature", "properties": {"norad_id": 46277, "name": "NEMO-HD", "group": "resource", "lat": -69.24643433247937, "lon": 79.23898384620576, "alt_km": 451.98134190825203, "timestamp": "2025-12-26T18:39:31.930109+00:00", "meta": {"OBJECT_NAME": "NEMO-HD", "OBJECT_ID": "2020-061F", "EPOCH": "2025-12-26T14:17:16.552608", "MEAN_MOTION": 15.40611952, "ECCENTRICITY": 9.99e-05, "INCLINATION": 97.2188, "RA_OF_ASC_NODE": 59.5173, "ARG_OF_PERICENTER": 54.6807, "MEAN_ANOMALY": 305.4533, "EPHEMERIS_TYPE": 0, "CLASSIFICATION_TYPE": "U", "NORAD_CAT_ID": 46277, "ELEMENT_SET_NO": 999, "REV_AT_EPOCH": 29537, "BSTAR": 0.00027333791, "MEAN_MOTION_DOT": 0.00011048, "MEAN_MOTION_DDOT": 0}, "tle": {"line1": "1 46277U 20061F   25360.59533047  .00011048  00000+0  27334-3 0  9992", "line2": "2 46277  97.2188  59.5173 0000999  54.6807 305.4533 15.40611952295373"}}, "geometry": {"type": "Point", "coordinates": [79.23898384620576, -69.24643433247937]}}, {"type": "Feature", "properties": {"norad_id": 46984, "name": "SENTINEL-6A", "group": "resource", "lat": 23.256028958446482, "lon": 144.1676211593751, "alt_km": 1338.894991328394, "timestamp": "2025-12-26T18:39:31.930120+00:00", "meta": {"OBJECT_NAME": "SENTINEL-6A", "OBJECT_ID": "2020-086A", "EPOCH": "2025-12-26T14:46:40.768032", "MEAN_MOTION": 12.80930802, "ECCENTRICITY": 0.00077678, "INCLINATION": 66.0403, "RA_OF_ASC_NODE": 133.4873, "ARG_OF_PERICENTER": 269.4522, "MEAN_ANOMALY": 90.5603, "EPHEMERIS_TYPE": 0, "CLASSIFICATION_TYPE": "U", "NORAD_CAT_ID": 46984, "ELEMENT_SET_NO": 999, "REV_AT_EPOCH": 23822, "BSTAR": 7.3466105e-05, "MEAN_MOTION_DOT": -4.4e-07, "MEAN_MOTION_DDOT": 0}, "tle": {"line1": "1 46984U 20086A   25360.61574963 -.00000044  00000+0  73466-4 0  9992", "line2": "2 46984  66.0403 133.4873 0007767 269.4522  90.5603 12.80930802238221"}}, "geometry": {"type": "Point", "coordinates": [144.1676211593751, 23.256028958446482]}}, {"type": "Feature", "properties": {"norad_id": 48079, "name": "GAOFEN-12 02", "group": "resource", "lat": -73.25124150261536, "lon": 146.91071738134886, "alt_km": 636.9257721922268, "timestamp": "2025-12-26T18:39:31.930130+00:00", "meta": {"OBJECT_NAME": "GAOFEN-12 02", "OBJECT_ID": "2021-026A", "EPOCH": "2025-12-26T14:15:58.238784", "MEAN_MOTION": 14.80691218, "ECCENTRICITY": 0.00035342, "INCLINATION": 97.9858, "RA_OF_ASC_NODE": 354.5344, "ARG_OF_PERICENTER": 73.3392, "MEAN_ANOMALY": 286.8208, "EPHEMERIS_TYPE": 0, "CLASSIFICATION_TYPE": "U", "NORAD_CAT_ID": 48079, "ELEMENT_SET_NO": 999, "REV_AT_EPOCH": 25622, "BSTAR": 7.8077582e-05, "MEAN_MOTION_DOT": 5.48e-06, "MEAN_MOTION_DDOT": 0}, "tle": {"line1": "1 48079U 21026A   25360.59442406  .00000548  00000+0  78078-4 0  9999", "line2": "2 48079  97.9858 354.5344 0003534  73.3392 286.8208 14.80691218256227"}}, "geometry": {"type": "Point", "coordinates": [146.91071738134886, -73.25124150261536]}}, {"type": "Feature", "properties": {"norad_id": 48268, "name": "PLEIADES NEO 3", "group": "resource", "lat": 11.756849727674485, "lon": 71.36219687540112, "alt_km": 625.1882986645569, "timestamp": "2025-12-26T18:39:31.930140+00:00", "meta": {"OBJECT_NAME": "PLEIADES NEO 3", "OBJECT_ID": "2021-034A", "EPOCH": "2025-12-26T15:21:50.021856", "MEAN_MOTION": 14.81674828, "ECCENTRICITY": 0.00013761, "INCLINATION": 97.8942, "RA_OF_ASC_NODE": 72.8817, "ARG_OF_PERICENTER": 89.0783, "MEAN_ANOMALY": 271.0588, "EPHEMERIS_TYPE": 0, "CLASSIFICATION_TYPE": "U", "NORAD_CAT_ID": 48268, "ELEMENT_SET_NO": 999, "REV_AT_EPOCH": 25210, "BSTAR": 0.00010009594, "MEAN_MOTION_DOT": 7.36e-06, "MEAN_MOTION_DDOT": 0}, "tle": {"line1": "1 48268U 21034A   25360.64016229  .00000736  00000+0  10010-3 0  9994", "line2": "2 48268  97.8942  72.8817 0001376  89.0783 271.0588 14.81674828252104"}}, "geometry": {"type": "Point", "coordinates": [71.36219687540112, 11.756849727674485]}}, {"type": "Feature", "properties": {"norad_id": 49070, "name": "PLEIADES NEO 4", "group": "resource", "lat": -12.079424617132894, "lon": -108.68848858277295, "alt_km": 628.7469613553294, "timestamp": "2025-12-26T18:39:31.930153+00:00", "meta": {"OBJECT_NAME": "PLEIADES NEO 4", "OBJECT_ID": "2021-073E", "EPOCH": "2025-12-26T14:33:11.646720", "MEAN_MOTION": 14.81672056, "ECCENTRICITY": 0.00013578, "INCLINATION": 97.8942, "RA_OF_ASC_NODE": 72.8445, "ARG_OF_PERICENTER": 87.8022, "MEAN_ANOMALY": 272.3346, "EPHEMERIS_TYPE": 0, "CLASSIFICATION_TYPE": "U", "NORAD_CAT_ID": 49070, "ELEMENT_SET_NO": 999, "REV_AT_EPOCH": 23581, "BSTAR": -3.8770979e-05, "MEAN_MOTION_DOT": -3.57e-06, "MEAN_MOTION_DDOT": 0}, "tle": {"line1": "1 49070U 21073E   25360.60638480 -.00000357  00000+0 -38771-4 0  9990", "line2": "2 49070  97.8942  72.8445 0001357  87.8022 272.3346 14.81672056235810"}}, "geometry": {"type": "Point", "coordinates": [-108.68848858277295, -12.079424617132894]}}, {"type": "Feature", "properties": {"norad_id": 49260, "name": "LANDSAT 9", "group": "resource", "lat": 48.54389712908706, "lon": 59.279998420989344, "alt_km": 697.579474055532, "timestamp": "2025-12-26T18:39:31.930163+00:00", "meta": {"OBJECT_NAME": "LANDSAT 9", "OBJECT_ID": "2021-088A", "EPOCH": "2025-12-26T15:08:15.499680", "MEAN_MOTION": 14.57112026, "ECCENTRICITY": 0.00011085, "INCLINATION": 98.2076, "RA_OF_ASC_NODE": 68.5392, "ARG_OF_PERICENTER": 93.7415, "MEAN_ANOMALY": 266.3911, "EPHEMERIS_TYPE": 0, "CLASSIFICATION_TYPE": "U", "NORAD_CAT_ID": 49260, "ELEMENT_SET_NO": 999, "REV_AT_EPOCH": 22587, "BSTAR": 0.0001141908, "MEAN_MOTION_DOT": 4.69e-06, "MEAN_MOTION_DDOT": 0}, "tle": {"line1": "1 49260U 21088A   25360.63073495  .00000469  00000+0  11419-3 0  9990", "line2": "2 49260  98.2076  68.5392 0001108  93.7415 266.3911 14.57112026225878"}}, "geometry": {"type": "Point", "coordinates": [59.279998420989344, 48.54389712908706]}}, {"type": "Feature", "properties": {"norad_id": 51444, "name": "CSG-2", "group": "resource", "lat": -67.63248459003937, "lon": -17.780723801853547, "alt_km": 630.7688745233891, "timestamp": "2025-12-26T18:39:31.930173+00:00", "meta": {"OBJECT_NAME": "CSG-2", "OBJECT_ID": "2022-008A", "EPOCH": "2025-12-26T14:17:54.750912", "MEAN_MOTION": 14.82157302, "ECCENTRICITY": 0.00014539, "INCLINATION": 97.8807, "RA_OF_ASC_NODE": 181.71, "ARG_OF_PERICENTER": 83.858, "MEAN_ANOMALY": 276.2798, "EPHEMERIS_TYPE": 0, "CLASSIFICATION_TYPE": "U", "NORAD_CAT_ID": 51444, "ELEMENT_SET_NO": 999, "REV_AT_EPOCH": 21102, "BSTAR": 8.2443374e-05, "MEAN_MOTION_DOT": 6.04e-06, "MEAN_MOTION_DDOT": 0}, "tle": {"line1": "1 51444U 22008A   25360.59577258  .00000604  00000+0  82443-4 0  9998", "line2": "2 51444  97.8807 181.7100 0001453  83.8580 276.2798 14.82157302211022"}}, "geometry": {"type": "Point", "coordinates": [-17.780723801853547, -67.63248459003937]}}]}